start=new Date('2022-07-06T00:00:00.000Z').valueOf();
sats=[{"OBJECT_ID":"2020-006F","ECCENTRICITY":"0.00020340","MEAN_ANOMALY":"296.4388","RCS_SIZE":"LARGE","OBJECT_TYPE":"PAYLOAD","EPHEMERIS_TYPE":"0","PERIAPSIS":"534.878","CLASSIFICATION_TYPE":"U","MEAN_MOTION_DDOT":"0.0000000000000","MEAN_MOTION":"15.09972987","REF_FRAME":"TEME","ARG_OF_PERICENTER":"63.6811","LAUNCH_DATE":"2020-01-29","COUNTRY_CODE":"US","APOAPSIS":"537.691","OBJECT_NAME":"STARLINK-1135","SITE":"AFETR","PERIOD":"95.366","TLE_LINE2":"2 45049  53.0543 194.8512 0002034  63.6811 296.4388 15.09972987134025","DECAY_DATE":null,"REV_AT_EPOCH":"13402","ELEMENT_SET_NO":"999","INCLINATION":"53.0543","TLE_LINE1":"1 45049U 20006F   22186.39896666  .00000918  00000-0  73661-4 0  9997","TIME_SYSTEM":"UTC","GP_ID":"207474870","BSTAR":"0.00007366100000","EPOCH":"2022-07-05T09:34:30.719424","MEAN_MOTION_DOT":"0.00000918","SEMIMAJOR_AXIS":"6914.419","NORAD_CAT_ID":"45049","FILE":"3508171","RA_OF_ASC_NODE":"194.8512","CENTER_NAME":"EARTH","MEAN_ELEMENT_THEORY":"SGP4"},{"MEAN_ELEMENT_THEORY":"SGP4","RA_OF_ASC_NODE":"196.8566","CENTER_NAME":"EARTH","NORAD_CAT_ID":"45050","FILE":"3508171","BSTAR":"0.00005757000000","EPOCH":"2022-07-05T09:40:25.499424","MEAN_MOTION_DOT":"0.00000576","SEMIMAJOR_AXIS":"6925.313","GP_ID":"207474124","TLE_LINE1":"1 45050U 20006G   22186.40307291  .00000576  00000-0  57570-4 0  9993","TIME_SYSTEM":"UTC","REV_AT_EPOCH":"13399","ELEMENT_SET_NO":"999","INCLINATION":"53.0522","PERIOD":"95.591","TLE_LINE2":"2 45050  53.0522 196.8566 0001639  69.6101 290.5064 15.06411642133997","DECAY_DATE":null,"COUNTRY_CODE":"US","OBJECT_NAME":"STARLINK-1140","APOAPSIS":"548.313","SITE":"AFETR","LAUNCH_DATE":"2020-01-29","ARG_OF_PERICENTER":"69.6101","REF_FRAME":"TEME","CLASSIFICATION_TYPE":"U","MEAN_MOTION_DDOT":"0.0000000000000","MEAN_MOTION":"15.06411642","EPHEMERIS_TYPE":"0","PERIAPSIS":"546.043","RCS_SIZE":"LARGE","OBJECT_TYPE":"PAYLOAD","ECCENTRICITY":"0.00016390","OBJECT_ID":"2020-006G","MEAN_ANOMALY":"290.5064"},{"NORAD_CAT_ID":"45051","FILE":"3508171","CENTER_NAME":"EARTH","RA_OF_ASC_NODE":"191.9532","MEAN_ELEMENT_THEORY":"SGP4","BSTAR":"0.00045206000000","EPOCH":"2022-07-05T09:33:15.261984","MEAN_MOTION_DOT":"0.00007809","SEMIMAJOR_AXIS":"6904.820","TLE_LINE1":"1 45051U 20006H   22186.39809331  .00007809  00000-0  45206-3 0  9992","TIME_SYSTEM":"UTC","GP_ID":"207473873","PERIOD":"95.167","TLE_LINE2":"2 45051  53.0487 191.9532 0001897  26.5399 333.5690 15.13122832134064","DECAY_DATE":null,"REV_AT_EPOCH":"13406","ELEMENT_SET_NO":"999","INCLINATION":"53.0487","LAUNCH_DATE":"2020-01-29","COUNTRY_CODE":"US","OBJECT_NAME":"STARLINK-1141","APOAPSIS":"527.995","SITE":"AFETR","CLASSIFICATION_TYPE":"U","MEAN_MOTION_DDOT":"0.0000000000000","MEAN_MOTION":"15.13122832","REF_FRAME":"TEME","ARG_OF_PERICENTER":"26.5399","EPHEMERIS_TYPE":"0","PERIAPSIS":"525.376","ECCENTRICITY":"0.00018970","OBJECT_ID":"2020-006H","MEAN_ANOMALY":"333.5690","RCS_SIZE":"LARGE","OBJECT_TYPE":"PAYLOAD"},{"MEAN_MOTION_DDOT":"0.0000000000000","CLASSIFICATION_TYPE":"U","MEAN_MOTION":"15.06396276","ARG_OF_PERICENTER":"65.5951","REF_FRAME":"TEME","LAUNCH_DATE":"2020-01-29","COUNTRY_CODE":"US","SITE":"AFETR","OBJECT_NAME":"STARLINK-1148","APOAPSIS":"548.277","OBJECT_ID":"2020-006J","ECCENTRICITY":"0.00015190","MEAN_ANOMALY":"294.5196","RCS_SIZE":"LARGE","OBJECT_TYPE":"PAYLOAD","PERIAPSIS":"546.173","EPHEMERIS_TYPE":"0","MEAN_MOTION_DOT":"-0.00001121","EPOCH":"2022-07-05T11:26:35.374848","BSTAR":"-0.00005636100000","SEMIMAJOR_AXIS":"6925.360","NORAD_CAT_ID":"45052","FILE":"3508171","MEAN_ELEMENT_THEORY":"SGP4","RA_OF_ASC_NODE":"196.5294","CENTER_NAME":"EARTH","DECAY_DATE":null,"TLE_LINE2":"2 45052  53.0532 196.5294 0001519  65.5951 294.5196 15.06396276134008","PERIOD":"95.592","ELEMENT_SET_NO":"999","REV_AT_EPOCH":"13400","INCLINATION":"53.0532","TLE_LINE1":"1 45052U 20006J   22186.47679832 -.00001121  00000-0 -56361-4 0  9991","TIME_SYSTEM":"UTC","GP_ID":"207474625"},{"PERIOD":"95.138","TLE_LINE2":"2 45053  53.0004 187.8533 0000689  10.9379 349.1628 15.13592538134089","DECAY_DATE":null,"INCLINATION":"53.0004","REV_AT_EPOCH":"13408","ELEMENT_SET_NO":"999","TIME_SYSTEM":"UTC","TLE_LINE1":"1 45053U 20006K   22186.38831280  .00001865  00000-0  11928-3 0  9991","GP_ID":"207475371","SEMIMAJOR_AXIS":"6903.392","EPOCH":"2022-07-05T09:19:10.225920","BSTAR":"0.00011928000000","MEAN_MOTION_DOT":"0.00001865","FILE":"3508171","NORAD_CAT_ID":"45053","MEAN_ELEMENT_THEORY":"SGP4","RA_OF_ASC_NODE":"187.8533","CENTER_NAME":"EARTH","MEAN_ANOMALY":"349.1628","OBJECT_ID":"2020-006K","ECCENTRICITY":"0.00006890","OBJECT_TYPE":"PAYLOAD","RCS_SIZE":"LARGE","EPHEMERIS_TYPE":"0","PERIAPSIS":"524.781","MEAN_MOTION":"15.13592538","CLASSIFICATION_TYPE":"U","MEAN_MOTION_DDOT":"0.0000000000000","REF_FRAME":"TEME","ARG_OF_PERICENTER":"10.9379","LAUNCH_DATE":"2020-01-29","APOAPSIS":"525.732","OBJECT_NAME":"STARLINK-1155","SITE":"AFETR","COUNTRY_CODE":"US"},{"TIME_SYSTEM":"UTC","TLE_LINE1":"1 45054U 20006L   22186.40676645  .00000665  00000-0  63521-4 0  9991","GP_ID":"207473624","DECAY_DATE":null,"TLE_LINE2":"2 45054  53.0529 196.8578 0001387  72.8120 287.3020 15.06405298133994","PERIOD":"95.592","INCLINATION":"53.0529","ELEMENT_SET_NO":"999","REV_AT_EPOCH":"13399","FILE":"3508171","NORAD_CAT_ID":"45054","MEAN_ELEMENT_THEORY":"SGP4","RA_OF_ASC_NODE":"196.8578","CENTER_NAME":"EARTH","SEMIMAJOR_AXIS":"6925.332","MEAN_MOTION_DOT":"0.00000665","BSTAR":"0.00006352100000","EPOCH":"2022-07-05T09:45:44.621280","PERIAPSIS":"546.237","EPHEMERIS_TYPE":"0","MEAN_ANOMALY":"287.3020","OBJECT_ID":"2020-006L","ECCENTRICITY":"0.00013870","OBJECT_TYPE":"PAYLOAD","RCS_SIZE":"LARGE","LAUNCH_DATE":"2020-01-29","SITE":"AFETR","APOAPSIS":"548.158","OBJECT_NAME":"STARLINK-1156","COUNTRY_CODE":"US","MEAN_MOTION":"15.06405298","MEAN_MOTION_DDOT":"0.0000000000000","CLASSIFICATION_TYPE":"U","REF_FRAME":"TEME","ARG_OF_PERICENTER":"72.8120"},{"RCS_SIZE":"LARGE","OBJECT_TYPE":"PAYLOAD","ECCENTRICITY":"0.00014430","OBJECT_ID":"2020-006P","MEAN_ANOMALY":"290.7528","EPHEMERIS_TYPE":"0","PERIAPSIS":"546.227","ARG_OF_PERICENTER":"69.3616","REF_FRAME":"TEME","CLASSIFICATION_TYPE":"U","MEAN_MOTION_DDOT":"0.0000000000000","MEAN_MOTION":"15.06395915","COUNTRY_CODE":"US","OBJECT_NAME":"STARLINK-1159","APOAPSIS":"548.225","SITE":"AFETR","LAUNCH_DATE":"2020-01-29","REV_AT_EPOCH":"13400","ELEMENT_SET_NO":"999","INCLINATION":"53.0555","PERIOD":"95.592","TLE_LINE2":"2 45057  53.0555 196.7832 0001443  69.3616 290.7528 15.06395915134000","DECAY_DATE":null,"GP_ID":"207474374","TIME_SYSTEM":"UTC","TLE_LINE1":"1 45057U 20006P   22186.42151099 -.00000971  00000-0 -46284-4 0  9996","BSTAR":"-0.00004628400000","EPOCH":"2022-07-05T10:06:58.549536","MEAN_MOTION_DOT":"-0.00000971","SEMIMAJOR_AXIS":"6925.361","CENTER_NAME":"EARTH","RA_OF_ASC_NODE":"196.7832","MEAN_ELEMENT_THEORY":"SGP4","NORAD_CAT_ID":"45057","FILE":"3508171"},{"CLASSIFICATION_TYPE":"U","MEAN_MOTION_DDOT":"0.0000000000000","MEAN_MOTION":"15.06404335","ARG_OF_PERICENTER":"71.0986","REF_FRAME":"TEME","LAUNCH_DATE":"2020-01-29","COUNTRY_CODE":"US","OBJECT_NAME":"STARLINK-1162","APOAPSIS":"548.244","SITE":"AFETR","ECCENTRICITY":"0.00015070","OBJECT_ID":"2020-006Q","MEAN_ANOMALY":"289.0167","RCS_SIZE":"LARGE","OBJECT_TYPE":"PAYLOAD","EPHEMERIS_TYPE":"0","PERIAPSIS":"546.157","BSTAR":"0.00008812000000","EPOCH":"2022-07-05T09:56:22.175520","MEAN_MOTION_DOT":"0.00001031","SEMIMAJOR_AXIS":"6925.335","NORAD_CAT_ID":"45058","FILE":"3508171","MEAN_ELEMENT_THEORY":"SGP4","RA_OF_ASC_NODE":"196.8154","CENTER_NAME":"EARTH","PERIOD":"95.592","TLE_LINE2":"2 45058  53.0545 196.8154 0001507  71.0986 289.0167 15.06404335134006","DECAY_DATE":null,"REV_AT_EPOCH":"13400","ELEMENT_SET_NO":"999","INCLINATION":"53.0545","TLE_LINE1":"1 45058U 20006Q   22186.41414555  .00001031  00000-0  88120-4 0  9996","TIME_SYSTEM":"UTC","GP_ID":"207475126"},{"LAUNCH_DATE":"2020-01-29","OBJECT_NAME":"STARLINK-1165","APOAPSIS":"548.214","SITE":"AFETR","COUNTRY_CODE":"US","MEAN_MOTION":"15.06407656","CLASSIFICATION_TYPE":"U","MEAN_MOTION_DDOT":"0.0000000000000","ARG_OF_PERICENTER":"75.3577","REF_FRAME":"TEME","EPHEMERIS_TYPE":"0","PERIAPSIS":"546.167","MEAN_ANOMALY":"284.7576","ECCENTRICITY":"0.00014780","OBJECT_ID":"2020-006R","OBJECT_TYPE":"PAYLOAD","RCS_SIZE":"LARGE","FILE":"3508171","NORAD_CAT_ID":"45059","CENTER_NAME":"EARTH","RA_OF_ASC_NODE":"196.7307","MEAN_ELEMENT_THEORY":"SGP4","SEMIMAJOR_AXIS":"6925.325","BSTAR":"0.00012201000000","EPOCH":"2022-07-05T10:28:12.106272","MEAN_MOTION_DOT":"0.00001537","TLE_LINE1":"1 45059U 20006R   22186.43625123  .00001537  00000-0  12201-3 0  9991","TIME_SYSTEM":"UTC","GP_ID":"207474871","PERIOD":"95.592","DECAY_DATE":null,"TLE_LINE2":"2 45059  53.0542 196.7307 0001478  75.3577 284.7576 15.06407656134008","INCLINATION":"53.0542","REV_AT_EPOCH":"13400","ELEMENT_SET_NO":"999"},{"SEMIMAJOR_AXIS":"6925.355","MEAN_MOTION_DOT":"0.00000829","BSTAR":"0.00007454900000","EPOCH":"2022-07-05T11:58:26.474592","FILE":"3508171","NORAD_CAT_ID":"45060","MEAN_ELEMENT_THEORY":"SGP4","RA_OF_ASC_NODE":"196.4388","CENTER_NAME":"EARTH","DECAY_DATE":null,"TLE_LINE2":"2 45060  53.0535 196.4388 0001716  61.1365 298.9796 15.06397875134014","PERIOD":"95.592","INCLINATION":"53.0535","ELEMENT_SET_NO":"999","REV_AT_EPOCH":"13401","TIME_SYSTEM":"UTC","TLE_LINE1":"1 45060U 20006S   22186.49891753  .00000829  00000-0  74549-4 0  9990","GP_ID":"207474125","MEAN_MOTION":"15.06397875","MEAN_MOTION_DDOT":"0.0000000000000","CLASSIFICATION_TYPE":"U","ARG_OF_PERICENTER":"61.1365","REF_FRAME":"TEME","LAUNCH_DATE":"2020-01-29","SITE":"AFETR","APOAPSIS":"548.408","OBJECT_NAME":"STARLINK-1166","COUNTRY_CODE":"US","MEAN_ANOMALY":"298.9796","OBJECT_ID":"2020-006S","ECCENTRICITY":"0.00017160","OBJECT_TYPE":"PAYLOAD","RCS_SIZE":"LARGE","PERIAPSIS":"546.032","EPHEMERIS_TYPE":"0"}];
